PROBA-1                 
1 26958U 01049B   26188.84555310  .00002162  00000+0  14170-3 0  9996
2 26958  97.9598 198.0995 0056045  53.9453 306.6948 15.07589772346739
CUTE-1 (CO-55)          
1 27844U 03031E   26188.47926414  .00000234  00000+0  12008-3 0  9996
2 27844  98.6738 196.7829 0010633 122.6531 237.5676 14.24348198194568
CUBESAT XI-IV (CO-57)   
1 27848U 03031J   26188.47791579  .00000195  00000+0  10456-3 0  9993
2 27848  98.6771 196.4779 0010210 139.6848 220.5090 14.23631593194262
APRIZESAT 4             
1 35684U 09041D   26188.75612090  .00000543  00000+0  71454-4 0  9991
2 35684  98.1405 264.4862 0041931 254.3409 105.3176 14.83907056914417
APRIZESAT 3             
1 35686U 09041F   26188.36163672  .00001193  00000+0  10759-3 0  9999
2 35686  98.2083 342.5549 0061416   1.6270 358.5138 14.96293772919390
PROBA-2                 
1 36037U 09059B   26188.46044608  .00000161  00000+0  48068-4 0  9996
2 36037  98.2457  11.5327 0012479 213.4919 146.5491 14.54871279884476
APRIZESAT 5             
1 37792U 11044E   26188.74754066  .00000787  00000+0  10674-3 0  9994
2 37792  98.2450 122.3713 0050872 297.3312  62.2726 14.81118847801834
APRIZESAT 6             
1 37793U 11044F   26188.74116514  .00000666  00000+0  10115-3 0  9991
2 37793  98.2346  99.6592 0043656  21.9354  32.6608 14.76949096800188
PROBA-V                 
1 39159U 13021A   26188.78283469  .00000092  00000+0  58216-4 0  9992
2 39159  98.3598 166.3739 0005416  76.9126 283.2658 14.23602409684040
APRIZESAT 7             
1 39416U 13066A   26188.81597981  .00001131  00000+0  11693-3 0  9990
2 39416  97.7717 141.7407 0036733 141.0059 219.3819 14.91608303684308
APRIZESAT 8             
1 39425U 13066K   26188.79046399  .00000685  00000+0  80082-4 0  9991
2 39425  97.8227 135.9721 0044887 216.6040 143.2107 14.87688679682736
BUGSAT-1 (TITA)         
1 40014U 14033E   26188.83179324  .00003632  00000+0  19204-3 0  9994
2 40014  98.0424 282.5917 0029146 109.8121 250.6256 15.15827790658961
SAUDISAT 4              
1 40016U 14033G   26188.33988546  .00000497  00000+0  72116-4 0  9993
2 40016  97.7608 333.7803 0044931   9.6934 350.5134 14.79569779649058
APRIZESAT 9             
1 40018U 14033J   26187.89098001  .00000682  00000+0  10714-3 0  9994
2 40018  97.9085 320.6105 0067109 136.1469 224.5095 14.74244511646469
APRIZESAT 10            
1 40019U 14033K   26187.92258438  .00000545  00000+0  93315-4 0  9998
2 40019  97.9673 314.4444 0078089 209.8934 149.7802 14.70903896645157
TECHDEMOSAT-1 (TDS-1)   
1 40076U 14037H   26188.72042619  .00005115  00000+0  28907-3 0  9998
2 40076  98.3826 182.9732 0006181 182.2695 177.8507 15.13610639651334
TECHNOSAT               
1 42829U 17042E   26188.39459046  .00002595  00000+0  18610-3 0  9993
2 42829  97.4299 345.2867 0018093  28.5922 331.6293 15.05076097489740
FLYING LAPTOP           
1 42831U 17042G   26188.84848524  .00003144  00000+0  24799-3 0  9995
2 42831  97.4782 343.5995 0019928  55.6340 304.6766 15.01282547489555
HAWK-A                  
1 43765U 18099H   26188.69223543  .00004815  00000+0  19339-3 0  9996
2 43765  97.3902 240.6624 0033946 210.6489 149.2766 15.24899746416221
HAWK-B                  
1 43794U 18099AN  26188.67263015  .00003835  00000+0  16381-3 0  9999
2 43794  97.3949 240.0150 0030700 229.1447 130.7128 15.23058447416159
HAWK-C                  
1 43799U 18099AT  26188.75303453  .00005724  00000+0  20497-3 0  9996
2 43799  97.3877 241.7361 0039582 210.3581 149.5366 15.28411629417056
SALSAT                  
1 46495U 20068K   26187.96288697  .00005977  00000+0  20799-3 0  9990
2 46495  97.8858 192.2352 0008388 224.1445 135.9125 15.30092809318384
HAWK-2C                 
1 47502U 21006CT  26188.68967191  .00004486  00000+0  13462-3 0  9999
2 47502  97.2270 232.5919 0008484 122.4690 237.7375 15.34924675302641
HAWK-2A                 
1 47505U 21006CW  26188.69196913  .00004518  00000+0  13554-3 0  9997
2 47505  97.2310 233.2840 0007962 125.4149 234.7839 15.34938935302648
HAWK-2B                 
1 47508U 21006CZ  26188.68611363  .00005110  00000+0  15236-3 0  9998
2 47508  97.2181 231.5774 0008544 124.0470 236.1586 15.35062896302643
HAWK-3B                 
1 48931U 21059BE  26187.50439762  .00036099  00000+0  28563-3 0  9995
2 48931  97.6647  26.0618 0003758 231.7433 128.3491 15.71268243280888
HAWK-3C                 
1 48948U 21059BX  26188.01356434  .00035456  00000+0  28021-3 0  9999
2 48948  97.6768  32.3408 0003979 231.9425 128.1479 15.71298826280968
HAWK-3A                 
1 48957U 21059CG  26188.01345058  .00036405  00000+0  28767-3 0  9991
2 48957  97.6708  29.5295 0003886 234.0895 126.0006 15.71296947280961
HAWK-5C                 
1 52754U 22057Y   26188.74398456  .00012600  00000+0  21007-3 0  9991
2 52754  97.6615 349.7502 0003554  14.6424 345.4930 15.52134508229530
HAWK-5B                 
1 52756U 22057AA  26188.74379258  .00012728  00000+0  21213-3 0  9992
2 52756  97.6631 348.1021 0004144   2.1284 357.9984 15.52139665229537
